STARLINK-3903           
1 52462U 22049M   26068.20596504 -.00000160  00000+0  80557-5 0  9996
2 52462  53.2174  61.3034 0001543  88.7314 271.3855 15.08837746212177
LEMUR-2-MARHISYAM       
1 60536U 24149BW  26068.74036894  .00013075  00000+0  82973-3 0  9990
2 60536  97.6912 151.2662 0003578 107.3271 252.8349 15.09015520 85478
